H1 CPF 01  gfz 2021 04 30 12  6202 terrasarx 
H2 0702601  6201 31698    2021 04 30 12 59 42 2021 05 05 00 00 42   120 1 1  0 0 0
H9
10 0 59335  43182.000000  0     641954.487   4512285.338   5155826.275
10 0 59335  43302.000000  0     751425.083   3777996.810   5701099.033
10 0 59335  43422.000000  0     834333.285   2976058.011   6146118.950
10 0 59335  43542.000000  0     888180.002   2120976.650   6483099.632
10 0 59335  43662.000000  0     911235.382   1228212.453   6706151.953
10 0 59335  43782.000000  0     902582.196    313894.269   6811380.850
10 0 59335  43902.000000  0     862140.441   -605470.792   6796948.420
10 0 59335  44022.000000  0     790672.523  -1513294.575   6663105.469
10 0 59335  44142.000000  0     689768.918  -2393207.051   6412187.729
10 0 59335  44262.000000  0     561814.534  -3229352.239   6048578.336
10 0 59335  44382.000000  0     409936.059  -4006676.018   5578633.653
10 0 59335  44502.000000  0     237932.483  -4711198.328   5010577.113
10 0 59335  44622.000000  0      50189.752  -5330269.422   4354363.116
10 0 59335  44742.000000  0    -148420.267  -5852806.983   3621508.761
10 0 59335  44862.000000  0    -352654.859  -6269504.996   2824893.933
10 0 59335  44982.000000  0    -557025.846  -6573009.834   1978534.342
10 0 59335  45102.000000  0    -755932.174  -6758058.151   1097332.270
10 0 59335  45222.000000  0    -943797.641  -6821577.369    196808.673
10 0 59335  45342.000000  0   -1115209.874  -6762739.948   -707180.110
10 0 59335  45462.000000  0   -1265055.459  -6582971.103  -1598730.840
10 0 59335  45582.000000  0   -1388648.687  -6285911.716  -2462180.965
10 0 59335  45702.000000  0   -1481851.325  -5877338.051  -3282390.149
10 0 59335  45822.000000  0   -1541180.136  -5365039.354  -4045010.095
10 0 59335  45942.000000  0   -1563899.120  -4758656.731  -4736735.737
10 0 59335  46062.000000  0   -1548094.603  -4069489.632  -5345532.731
10 0 59335  46182.000000  0   -1492732.099  -3310275.559  -5860839.210
10 0 59335  46302.000000  0   -1397693.714  -2494947.423  -6273739.656
10 0 59335  46422.000000  0   -1263795.634  -1638373.116  -6577108.141
10 0 59335  46542.000000  0   -1092786.043   -756083.891  -6765719.584
10 0 59335  46662.000000  0    -887323.949    136004.149  -6836330.225
10 0 59335  46782.000000  0    -650938.061   1021871.337  -6787726.534
10 0 59335  46902.000000  0    -387967.080   1885674.492  -6620743.492
10 0 59335  47022.000000  0    -103483.116   2712022.778  -6338252.015
10 0 59335  47142.000000  0     196802.429   3486247.084  -5945116.778
10 0 59335  47262.000000  0     506649.782   4194658.956  -5448120.974
10 0 59335  47382.000000  0     819414.981   4824792.974  -4855859.722
10 0 59335  47502.000000  0    1128186.412   5365631.518  -4178603.391
10 0 59335  47622.000000  0    1425931.668   5807806.158  -3428129.255
10 0 59335  47742.000000  0    1705651.211   6143770.346  -2617524.575
10 0 59335  47862.000000  0    1960535.752   6367940.615  -1760963.272
10 0 59335  47982.000000  0    2184123.933   6476801.581   -873458.488
10 0 59335  48102.000000  0    2370456.009   6468970.286     29404.347
10 0 59335  48222.000000  0    2514219.258   6345217.875    931747.408
10 0 59335  48342.000000  0    2610881.477   6108448.206   1817687.160
10 0 59335  48462.000000  0    2656809.127   5763633.882   2671622.096
10 0 59335  48582.000000  0    2649367.441   5317711.321   3478515.317
10 0 59335  48702.000000  0    2586999.906   4779437.092   4224166.176
10 0 59335  48822.000000  0    2469284.261   4159209.182   4895466.259
10 0 59335  48942.000000  0    2296962.195   3468854.653   5480630.928
10 0 59335  49062.000000  0    2071946.034   2721396.137   5969401.543
10 0 59335  49182.000000  0    1797302.062   1930800.716   6353221.182
10 0 59335  49302.000000  0    1477208.729   1111713.482   6625379.691
10 0 59335  49422.000000  0    1116891.714    279182.791   6781123.775
10 0 59335  49542.000000  0     722537.943   -551615.342   6817734.196
10 0 59335  49662.000000  0     301189.172  -1365653.316   6734572.075
10 0 59335  49782.000000  0    -139383.980  -2148323.944   6533089.338
10 0 59335  49902.000000  0    -590825.359  -2885702.743   6216804.622
10 0 59335  50022.000000  0   -1044350.352  -3564796.568   5791243.740
10 0 59335  50142.000000  0   -1490913.720  -4173773.276   5263848.158
10 0 59335  50262.000000  0   -1921388.697  -4702172.210   4643853.552
10 0 59335  50382.000000  0   -2326754.118  -5141092.109   3942135.237
10 0 59335  50502.000000  0   -2698284.409  -5483350.578   3171020.434
10 0 59335  50622.000000  0   -3027736.872  -5723608.890   2344071.152
10 0 59335  50742.000000  0   -3307532.623  -5858460.953   1475843.784
10 0 59335  50862.000000  0   -3530927.300  -5886484.858    581628.275
10 0 59335  50982.000000  0   -3692167.003  -5808254.579   -322828.061
10 0 59335  51102.000000  0   -3786625.452  -5626311.667  -1221606.445
10 0 59335  51222.000000  0   -3810918.511  -5345096.512  -2098906.208
10 0 59335  51342.000000  0   -3762993.142  -4970841.051  -2939330.640
10 0 59335  51462.000000  0   -3642188.414  -4511426.331  -3728162.625
10 0 59335  51582.000000  0   -3449267.321  -3976209.730  -4451623.644
10 0 59335  51702.000000  0   -3186420.005  -3375827.380  -5097111.806
10 0 59335  51822.000000  0   -2857238.748  -2721976.123  -5653415.388
10 0 59335  51942.000000  0   -2466666.004  -2027180.721  -6110898.443
10 0 59335  52062.000000  0   -2020916.561  -1304551.511  -6461657.693
10 0 59335  52182.000000  0   -1527375.055   -567536.533  -6699647.652
10 0 59335  52302.000000  0    -994472.638    170326.072  -6820772.955
10 0 59335  52422.000000  0    -431544.952    895650.836  -6822950.550
10 0 59335  52542.000000  0     151328.222   1595441.594  -6706141.679
10 0 59335  52662.000000  0     743497.775   2257317.902  -6472353.013
10 0 59335  52782.000000  0    1333935.684   2869730.299  -6125608.006
10 0 59335  52902.000000  0    1911436.282   3422160.152  -5671884.452
10 0 59335  53022.000000  0    2464825.180   3905300.615  -5119021.065
10 0 59335  53142.000000  0    2983173.336   4311216.373  -4476593.674
10 0 59335  53262.000000  0    3456012.655   4633480.532  -3755760.460
10 0 59335  53382.000000  0    3873548.880   4867284.114  -2969077.222
10 0 59335  53502.000000  0    4226867.808   5009515.225  -2130284.280
10 0 59335  53622.000000  0    4508127.712   5058805.014  -1254068.741
10 0 59335  53742.000000  0    4710735.371   5015541.011   -355806.276
10 0 59335  53862.000000  0    4829499.528   4881843.349    548714.493
10 0 59335  53982.000000  0    4860755.967   4661505.811   1443576.149
10 0 59335  54102.000000  0    4802464.211   4359904.954   2313019.776
10 0 59335  54222.000000  0    4654272.666   3983876.512   3141732.274
10 0 59335  54342.000000  0    4417547.022   3541561.842   3915124.522
10 0 59335  54462.000000  0    4095363.201   3042229.861   4619592.969
10 0 59335  54582.000000  0    3692467.660   2496080.125   5242760.854
10 0 59335  54702.000000  0    3215201.850   1914029.972   5773696.313
10 0 59335  54822.000000  0    2671395.937   1307492.909   6203099.192
10 0 59335  54942.000000  0    2070235.548    688151.638   6523457.950
10 0 59335  55062.000000  0    1422102.890     67732.561   6729173.967
10 0 59335  55182.000000  0     738395.165   -542214.806   6816655.212
10 0 59335  55302.000000  0      31322.762  -1130533.181   6784375.701
10 0 59335  55422.000000  0    -686309.086  -1686661.236   6632899.734
10 0 59335  55542.000000  0   -1401331.881  -2200823.192   6364871.719
10 0 59335  55662.000000  0   -2100453.599  -2664200.240   5984971.483
10 0 59335  55782.000000  0   -2770503.832  -3069082.561   5499839.444
10 0 59335  55902.000000  0   -3398684.671  -3409001.733   4917968.803
10 0 59335  56022.000000  0   -3972820.238  -3678837.736   4249561.289
10 0 59335  56142.000000  0   -4481596.872  -3874898.751   3506351.719
10 0 59335  56262.000000  0   -4914790.899  -3994972.874   2701404.645
10 0 59335  56382.000000  0   -5263480.107  -4038351.035   1848885.239
10 0 59335  56502.000000  0   -5520232.726  -4005819.112    963805.860
10 0 59335  56622.000000  0   -5679268.160  -3899618.457     61755.331
10 0 59335  56742.000000  0   -5736586.020  -3723376.713   -841383.717
10 0 59335  56862.000000  0   -5690059.716  -3482010.267  -1729724.299
10 0 59335  56982.000000  0   -5539490.390  -3181599.679  -2587663.936
10 0 59335  57102.000000  0   -5286621.736  -2829243.316  -3400164.325
10 0 59335  57222.000000  0   -4935116.315  -2432893.055  -4153017.756
10 0 59335  57342.000000  0   -4490494.661  -2001176.219  -4833094.679
10 0 59335  57462.000000  0   -3960038.845  -1543208.780  -5428568.524
10 0 59335  57582.000000  0   -3352663.445  -1068403.402  -5929113.918
10 0 59335  57702.000000  0   -2678757.726   -586277.155  -6326075.194
10 0 59335  57822.000000  0   -1950002.697   -106263.232  -6612604.691
10 0 59335  57942.000000  0   -1179165.956    362469.642  -6783769.072
10 0 59335  58062.000000  0    -379880.352    811187.082  -6836624.231
10 0 59335  58182.000000  0     433591.911   1231747.726  -6770260.183
10 0 59335  58302.000000  0    1246606.438   1616746.229  -6585815.911
10 0 59335  58422.000000  0    2044395.018   1959641.538  -6286463.880
10 0 59335  58542.000000  0    2812328.847   2254867.091  -5877361.055
10 0 59335  58662.000000  0    3536183.357   2497921.060  -5365568.195
10 0 59335  58782.000000  0    4202399.718   2685435.709  -4759939.450
10 0 59335  58902.000000  0    4798341.998   2815225.429  -4070981.032
10 0 59335  59022.000000  0    5312542.541   2886311.024  -3310678.087
10 0 59335  59142.000000  0    5734929.488   2898919.958  -2492293.974
10 0 59335  59262.000000  0    6057034.536   2854463.036  -1630143.769
10 0 59335  59382.000000  0    6272171.866   2755485.183   -739343.029
10 0 59335  59502.000000  0    6375584.712   2605592.875    164460.389
10 0 59335  59622.000000  0    6364554.183   2409358.041   1065368.516
99
